*******************************************************************************
 Revised: Jun 17, 2016                Saturn                                699
 
 PHYSICAL DATA (updated 2009-May-26):
  Mass (10^26 kg)       = 5.68319         Density (g/cm^3)       =  0.687+-.001
  Equat. radius (1 bar) = 60268+-4 km     Polar radius (km)      = 54364+-10
  Volumetric mean radius= 58232+-6 km     Flattening             =  0.09796

  Rotation period       = 10h 39m 22.4s   Rot. rate(10^-4 rad/s) =  1.63785 
  m = w^2a^3/GM         =  0.15481        Hydrostatic flat., fh  =  0.09829
  Inferred rot. period  = 10.61+-0.02 hr  ks = 3*J2/m            =  0.317
  Mom. of inert. I/MRo^2=  0.210          I/MRo^2 (upper bound)  =  0.231 
  Rocky core mass (Mc/M)=  0.1027         Y factor (He/H ratio)  =  

  GM (km^3/s^2)         = 37931207.8      GM 1-sigma (km^3/s^2)  = +- 98
  Equ. grav, ge (m/s^2) = 10.44           Pol. grav, gp (m/s^2)  = 12.14+-0.01

  Geometric albedo      =  0.47           Visual magnitude V(1,0)= -8.88
  Vis. mag. (opposition)= +0.67           Obliquity to orbit     = 26.73 deg
  Sidereal orbit period = 29.447498 yr    Sidereal orbit period  = 10755.698 d
  Mean daily motion     = 0.0334979 deg/d Mean orbit velocity    =  9.6624 km/s

  Atmos. temp. (1 bar)  = 134+-4 K        Heat flow/mass (x10^7) = 15 erg/gm*s
  Planetary Solar Const =  15.04 W/m^2    Dipole tilt/offset     = 0.0deg/0.0Rp 
  Escape velocity (km/s)=  35.5           Mag.dip.mom(gauss-Rp^3)= 0.21
  Aroche(ice)/Rp        =  2.71           Hill's sphere rad. Rp  = 1100
*******************************************************************************
 
 
*******************************************************************************
Ephemeris / WWW_USER Wed Dec  7 01:16:35 2016 Pasadena, USA      / Horizons    
*******************************************************************************
Target body name: Saturn (699)                    {source: sat389}
Center body name: Sun (10)                        {source: sat389}
Center-site name: BODY CENTER
*******************************************************************************
Start time      : A.D. 1996-Dec-05 00:00:00.0000 TDB
Stop  time      : A.D. 2000-Jan-04 00:00:00.0000 TDB
Step-size       : 1440 minutes
*******************************************************************************
Center geodetic : 0.00000000,0.00000000,0.0000000 {E-lon(deg),Lat(deg),Alt(km)}
Center cylindric: 0.00000000,0.00000000,0.0000000 {E-lon(deg),Dxy(km),Dz(km)}
Center radii    : 696000.0 x 696000.0 x 696000.0 k{Equator, meridian, pole}    
Output units    : KM-S                                                         
Output type     : GEOMETRIC cartesian states
Output format   : 2 (position and velocity)
Reference frame : ICRF/J2000.0                                                 
Coordinate systm: Ecliptic and Mean Equinox of Reference Epoch                 
*******************************************************************************
JDTDB
   X     Y     Z
   VX    VY    VZ
*******************************************************************************
$$SOE
2451412.500000000 = A.D. 1999-Aug-22 00:00:00.0000 TDB 
   1.040146280636062E+09  9.025190509318403E+08 -5.706538486107963E+07
  -6.844116237375138E+00  7.289257326801773E+00  1.457358335711993E-01
2451413.500000000 = A.D. 1999-Aug-23 00:00:00.0000 TDB 
   1.039554768038885E+09  9.031486828889329E+08 -5.705279038167429E+07
  -6.848322297041734E+00  7.285579195590246E+00  1.457929229936701E-01
2451414.500000000 = A.D. 1999-Aug-24 00:00:00.0000 TDB 
   1.038962884706348E+09  9.037780022566291E+08 -5.704019293195784E+07
  -6.852714957326228E+00  7.282000940073152E+00  1.458165955233888E-01
2451415.500000000 = A.D. 1999-Aug-25 00:00:00.0000 TDB 
   1.038370615063153E+09  9.044070131586977E+08 -5.702759323444861E+07
  -6.857265105974563E+00  7.278449329855673E+00  1.458397526547213E-01
2451416.500000000 = A.D. 1999-Aug-26 00:00:00.0000 TDB 
   1.037777943334373E+09  9.050357156672515E+08 -5.701498988472289E+07
  -6.861989519643380E+00  7.274832084893069E+00  1.459131241948852E-01
2451417.500000000 = A.D. 1999-Aug-27 00:00:00.0000 TDB 
   1.037184861201887E+09  9.056641057760177E+08 -5.700238018644929E+07
  -6.866813485196499E+00  7.271245096348890E+00  1.459777774474884E-01
2451418.500000000 = A.D. 1999-Aug-28 00:00:00.0000 TDB 
   1.036591349540154E+09  9.062921818196068E+08 -5.698976152821392E+07
  -6.871902197599810E+00  7.267499840848697E+00  1.461495064330527E-01
2451419.500000000 = A.D. 1999-Aug-29 00:00:00.0000 TDB 
   1.035997398525464E+09  9.069199231986533E+08 -5.697712239883900E+07
  -6.876959534159894E+00  7.263535516295998E+00  1.464303765420576E-01
2451420.500000000 = A.D. 1999-Aug-30 00:00:00.0000 TDB 
   1.035403011247013E+09  9.075473159770672E+08 -5.696445597570944E+07
  -6.881986194832814E+00  7.259417051703585E+00  1.467860696375389E-01
2451421.500000000 = A.D. 1999-Aug-31 00:00:00.0000 TDB 
   1.034808193373442E+09  9.081743482507217E+08 -5.695175688716984E+07
  -6.886948716141393E+00  7.255192135180852E+00  1.471885262872838E-01
2451422.500000000 = A.D. 1999-Sep-01 00:00:00.0000 TDB 
   1.034212951305156E+09  9.088010078526986E+08 -5.693901956388468E+07
  -6.891764891545332E+00  7.250807467602653E+00  1.476576642760423E-01
2451423.500000000 = A.D. 1999-Sep-02 00:00:00.0000 TDB 
   1.033617299590964E+09  9.094272875685110E+08 -5.692624186951178E+07
  -6.896462443090882E+00  7.246389113035616E+00  1.481316168990285E-01
2451424.500000000 = A.D. 1999-Sep-03 00:00:00.0000 TDB 
   1.033021249276903E+09  9.100531786860663E+08 -5.691342042527795E+07
  -6.900922146837708E+00  7.241822373471612E+00  1.486577365979138E-01
2451425.500000000 = A.D. 1999-Sep-04 00:00:00.0000 TDB 
   1.032424829118968E+09  9.106786804709741E+08 -5.690055781590033E+07
  -6.905086205355971E+00  7.237417694959128E+00  1.490696698003355E-01
2451426.500000000 = A.D. 1999-Sep-05 00:00:00.0000 TDB 
   1.031828053477080E+09  9.113038088774903E+08 -5.688766385374254E+07
  -6.909151200758202E+00  7.233182907676294E+00  1.493815173502071E-01
2451427.500000000 = A.D. 1999-Sep-06 00:00:00.0000 TDB 
   1.031230926859932E+09  9.119285791853657E+08 -5.687474700544143E+07
  -6.913219141274874E+00  7.229106275173481E+00  1.496120913820063E-01
2451428.500000000 = A.D. 1999-Sep-07 00:00:00.0000 TDB 
   1.030633450555507E+09  9.125530032850004E+08 -5.686181358661199E+07
  -6.917255740112495E+00  7.225196905472138E+00  1.497512539841250E-01
2451429.500000000 = A.D. 1999-Sep-08 00:00:00.0000 TDB 
   1.030035619538244E+09  9.131770984172150E+08 -5.684887213640755E+07
  -6.921453114640621E+00  7.221451745263519E+00  1.498207530840849E-01
2451430.500000000 = A.D. 1999-Sep-09 00:00:00.0000 TDB 
   1.029437423205811E+09  9.138008721874958E+08 -5.683592566994548E+07
  -6.925699348510931E+00  7.217802585199620E+00  1.498429860439101E-01
2451431.500000000 = A.D. 1999-Sep-10 00:00:00.0000 TDB 
   1.028838848579037E+09  9.144243387416122E+08 -5.682298038145125E+07
  -6.930247056528648E+00  7.214281582726401E+00  1.498274862969988E-01
2451432.500000000 = A.D. 1999-Sep-11 00:00:00.0000 TDB 
   1.028239870631958E+09  9.150474970186920E+08 -5.681003339293259E+07
  -6.935011550871585E+00  7.210660700715167E+00  1.498834600259551E-01
2451433.500000000 = A.D. 1999-Sep-12 00:00:00.0000 TDB 
   1.027640475788053E+09  9.156703366108088E+08 -5.679707802525455E+07
  -6.939873246569274E+00  7.206903779758584E+00  1.500188325645544E-01
2451434.500000000 = A.D. 1999-Sep-13 00:00:00.0000 TDB 
   1.027040659546208E+09  9.162928487024521E+08 -5.678410946932960E+07
  -6.944791593175542E+00  7.203096877930578E+00  1.501827987798428E-01
2451435.500000000 = A.D. 1999-Sep-14 00:00:00.0000 TDB 
   1.026440411314447E+09  9.169150257246475E+08 -5.677112291238898E+07
  -6.949831065961277E+00  7.199104937098913E+00  1.504531119939223E-01
2451436.500000000 = A.D. 1999-Sep-15 00:00:00.0000 TDB 
   1.025839731033965E+09  9.175368519117858E+08 -5.675811035994369E+07
  -6.954826843589684E+00  7.195007180652985E+00  1.507721061884997E-01
2451437.500000000 = A.D. 1999-Sep-16 00:00:00.0000 TDB 
   1.025238616594961E+09  9.181583155406729E+08 -5.674506562008715E+07
  -6.959831695691824E+00  7.190678164920556E+00  1.512105302662379E-01
2451438.500000000 = A.D. 1999-Sep-17 00:00:00.0000 TDB 
   1.024637079640157E+09  9.187793965264186E+08 -5.673197958616173E+07
  -6.964595205465457E+00  7.186186860795750E+00  1.517080018498249E-01
2451439.500000000 = A.D. 1999-Sep-18 00:00:00.0000 TDB 
   1.024035140840320E+09  9.194000879598942E+08 -5.671885083298278E+07
  -6.969135566199910E+00  7.181673419395990E+00  1.521924101217014E-01
2451440.500000000 = A.D. 1999-Sep-19 00:00:00.0000 TDB 
   1.023432816173003E+09  9.200203921715019E+08 -5.670568235590029E+07
  -6.973562363718825E+00  7.177210744512375E+00  1.526382871987120E-01
2451441.500000000 = A.D. 1999-Sep-20 00:00:00.0000 TDB 
   1.022830116557249E+09  9.206403077921865E+08 -5.669247455492413E+07
  -6.977758968579241E+00  7.172710767860798E+00  1.530798159748246E-01
2451442.500000000 = A.D. 1999-Sep-21 00:00:00.0000 TDB 
   1.022227062835856E+09  9.212598432809311E+08 -5.667923396680647E+07
  -6.981814314500545E+00  7.168408595484879E+00  1.534044334409908E-01
2451443.500000000 = A.D. 1999-Sep-22 00:00:00.0000 TDB 
   1.021623661934588E+09  9.218790120032642E+08 -5.666596828148437E+07
  -6.985772209286345E+00  7.164234209968525E+00  1.536512687353913E-01
2451444.500000000 = A.D. 1999-Sep-23 00:00:00.0000 TDB 
   1.021019920973393E+09  9.224978319172696E+08 -5.665268763209969E+07
  -6.989744699344324E+00  7.160340788015644E+00  1.537533235512276E-01
